[{"OBJECT_NAME":"STARLINK-5584","OBJECT_ID":"2023-028AE","EPOCH":"2026-03-09T18:28:02.981280","MEAN_MOTION":14.98332641,"ECCENTRICITY":0.00029082,"INCLINATION":69.9998,"RA_OF_ASC_NODE":224.3096,"ARG_OF_PERICENTER":269.8174,"MEAN_ANOMALY":90.2652,"EPHEMERIS_TYPE":0,"CLASSIFICATION_TYPE":"U","NORAD_CAT_ID":55769,"ELEMENT_SET_NO":999,"REV_AT_EPOCH":16654,"BSTAR":2.8940536e-5,"MEAN_MOTION_DOT":2.52e-6,"MEAN_MOTION_DDOT":0},{"OBJECT_NAME":"RROCI-2","OBJECT_ID":"2024-043J","EPOCH":"2026-03-09T21:40:56.693280","MEAN_MOTION":14.99383357,"ECCENTRICITY":0.00054118,"INCLINATION":97.8279,"RA_OF_ASC_NODE":200.9973,"ARG_OF_PERICENTER":337.3784,"MEAN_ANOMALY":22.7199,"EPHEMERIS_TYPE":0,"CLASSIFICATION_TYPE":"U","NORAD_CAT_ID":59106,"ELEMENT_SET_NO":999,"REV_AT_EPOCH":10988,"BSTAR":0.00035067832,"MEAN_MOTION_DOT":4.232e-5,"MEAN_MOTION_DDOT":0}]
